STARLINK-5131           
1 53996U 22125AJ  25330.14878163  .00000338  00000+0  39352-4 0  9994
2 53996  53.2179 318.7736 0001942  92.6687 267.4527 15.08836503173834
STARLINK-5130           
1 53997U 22125AK  25330.18286877 -.00000467  00000+0 -11284-4 0  9993
2 53997  53.2186 309.0090 0001320  91.2183 268.8960 15.08833945173973
STARLINK-5128           
1 53998U 22125AL  25330.14142309  .00004308  00000+0  28860-3 0  9994
2 53998  53.2175 318.7269 0001031 100.6791 259.4317 15.08839336173833
STARLINK-5079           
1 53999U 22125AM  25330.15615409 -.00000548  00000+0 -16371-4 0  9991
2 53999  53.2184 318.8179 0001335  98.6573 261.4570 15.08843709173839
STARLINK-5088           
1 54000U 22125AN  25330.17917499 -.00005321  00000+0 -31631-3 0  9990
2 54000  53.2185 308.9866 0000988  93.4592 266.6514 15.08857575173970
STARLINK-5109           
1 54002U 22125AQ  25330.13497071 -.00000504  00000+0 -13558-4 0  9994
2 54002  53.2190 308.7329 0001751  83.1046 277.0145 15.08835523173974
STARLINK-5114           
1 54003U 22125AR  25330.14509721 -.00001328  00000+0 -65367-4 0  9992
2 54003  53.2179 318.7502 0001357  98.3135 261.8011 15.08840545173833
STARLINK-5129           
1 54004U 22125AS  25330.13403737  .00000694  00000+0  61721-4 0  9995
2 54004  53.2179 318.6828 0001445  91.7980 268.3178 15.08833902173832
STARLINK-5135           
1 54005U 22125AT  25330.13772948 -.00000670  00000+0 -24017-4 0  9992
2 54005  53.2186 318.7070 0001454  97.3734 262.7424 15.08829360173835
STARLINK-5096           
1 54006U 22125AU  25330.18920757  .00000475  00000+0  47934-4 0  9995
2 54006  53.2188 318.3245 0001476 102.3801 257.7356 15.08856139173836
STARLINK-5132           
1 54007U 22125AV  25330.13035142  .00001657  00000+0  12217-3 0  9994
2 54007  53.2176 318.6614 0001370  92.8771 267.2378 15.08837393173830
STARLINK-5145           
1 54008U 22125AW  25330.12759896 -.00000492  00000+0 -12815-4 0  9996
2 54008  53.2167 308.6687 0001952  85.7837 274.3379 15.08845740173970
STARLINK-5099           
1 54009U 22125AX  25330.12666814  .00000019  00000+0  19290-4 0  9991
2 54009  53.2179 318.6383 0001439  94.0865 266.0292 15.08840004173837
STARLINK-5127           
1 54010U 22125AY  25330.18646632  .00002006  00000+0  14412-3 0  9993
2 54010  53.2170 308.3385 0001239  88.5768 271.5366 15.08832085173985
STARLINK-5124           
1 54011U 22125AZ  25330.17549031 -.00006458  00000+0 -38785-3 0  9994
2 54011  53.2197 308.9646 0001796 101.2193 258.9001 15.08854850173972
STARLINK-5126           
1 54012U 22125BA  25330.14969735 -.00000230  00000+0  36574-5 0  9996
2 54012  53.2174 308.8040 0001374  91.4557 268.6593 15.08843861173975
STARLINK-5098           
1 54013U 22125BB  25330.15707345  .00001065  00000+0  84998-4 0  9993
2 54013  53.2180 308.8485 0001444 103.8686 256.2466 15.08838904173979
