[{"OBJECT_NAME":"STARLINK-5131","OBJECT_ID":"2022-125AJ","EPOCH":"2025-11-26T03:34:14.732832","MEAN_MOTION":15.08836503,"ECCENTRICITY":0.0001942,"INCLINATION":53.2179,"RA_OF_ASC_NODE":318.7736,"ARG_OF_PERICENTER":92.6687,"MEAN_ANOMALY":267.4527,"EPHEMERIS_TYPE":0,"CLASSIFICATION_TYPE":"U","NORAD_CAT_ID":53996,"ELEMENT_SET_NO":999,"REV_AT_EPOCH":17383,"BSTAR":3.9352e-5,"MEAN_MOTION_DOT":3.38e-6,"MEAN_MOTION_DDOT":0},{"OBJECT_NAME":"STARLINK-5130","OBJECT_ID":"2022-125AK","EPOCH":"2025-11-26T04:23:19.861728","MEAN_MOTION":15.08833945,"ECCENTRICITY":0.000132,"INCLINATION":53.2186,"RA_OF_ASC_NODE":309.009,"ARG_OF_PERICENTER":91.2183,"MEAN_ANOMALY":268.896,"EPHEMERIS_TYPE":0,"CLASSIFICATION_TYPE":"U","NORAD_CAT_ID":53997,"ELEMENT_SET_NO":999,"REV_AT_EPOCH":17397,"BSTAR":-1.1284e-5,"MEAN_MOTION_DOT":-4.67e-6,"MEAN_MOTION_DDOT":0},{"OBJECT_NAME":"STARLINK-5128","OBJECT_ID":"2022-125AL","EPOCH":"2025-11-26T03:23:38.954976","MEAN_MOTION":15.08839336,"ECCENTRICITY":0.0001031,"INCLINATION":53.2175,"RA_OF_ASC_NODE":318.7269,"ARG_OF_PERICENTER":100.6791,"MEAN_ANOMALY":259.4317,"EPHEMERIS_TYPE":0,"CLASSIFICATION_TYPE":"U","NORAD_CAT_ID":53998,"ELEMENT_SET_NO":999,"REV_AT_EPOCH":17383,"BSTAR":0.0002886,"MEAN_MOTION_DOT":4.308e-5,"MEAN_MOTION_DDOT":0},{"OBJECT_NAME":"STARLINK-5079","OBJECT_ID":"2022-125AM","EPOCH":"2025-11-26T03:44:51.713376","MEAN_MOTION":15.08843709,"ECCENTRICITY":0.0001335,"INCLINATION":53.2184,"RA_OF_ASC_NODE":318.8179,"ARG_OF_PERICENTER":98.6573,"MEAN_ANOMALY":261.457,"EPHEMERIS_TYPE":0,"CLASSIFICATION_TYPE":"U","NORAD_CAT_ID":53999,"ELEMENT_SET_NO":999,"REV_AT_EPOCH":17383,"BSTAR":-1.6371e-5,"MEAN_MOTION_DOT":-5.48e-6,"MEAN_MOTION_DDOT":0},{"OBJECT_NAME":"STARLINK-5088","OBJECT_ID":"2022-125AN","EPOCH":"2025-11-26T04:18:00.719136","MEAN_MOTION":15.08857575,"ECCENTRICITY":9.88e-5,"INCLINATION":53.2185,"RA_OF_ASC_NODE":308.9866,"ARG_OF_PERICENTER":93.4592,"MEAN_ANOMALY":266.6514,"EPHEMERIS_TYPE":0,"CLASSIFICATION_TYPE":"U","NORAD_CAT_ID":54000,"ELEMENT_SET_NO":999,"REV_AT_EPOCH":17397,"BSTAR":-0.00031631,"MEAN_MOTION_DOT":-5.321e-5,"MEAN_MOTION_DDOT":0},{"OBJECT_NAME":"STARLINK-5109","OBJECT_ID":"2022-125AQ","EPOCH":"2025-11-26T03:14:21.469344","MEAN_MOTION":15.08835523,"ECCENTRICITY":0.0001751,"INCLINATION":53.219,"RA_OF_ASC_NODE":308.7329,"ARG_OF_PERICENTER":83.1046,"MEAN_ANOMALY":277.0145,"EPHEMERIS_TYPE":0,"CLASSIFICATION_TYPE":"U","NORAD_CAT_ID":54002,"ELEMENT_SET_NO":999,"REV_AT_EPOCH":17397,"BSTAR":-1.3558e-5,"MEAN_MOTION_DOT":-5.04e-6,"MEAN_MOTION_DDOT":0},{"OBJECT_NAME":"STARLINK-5114","OBJECT_ID":"2022-125AR","EPOCH":"2025-11-26T03:28:56.398944","MEAN_MOTION":15.08840545,"ECCENTRICITY":0.0001357,"INCLINATION":53.2179,"RA_OF_ASC_NODE":318.7502,"ARG_OF_PERICENTER":98.3135,"MEAN_ANOMALY":261.8011,"EPHEMERIS_TYPE":0,"CLASSIFICATION_TYPE":"U","NORAD_CAT_ID":54003,"ELEMENT_SET_NO":999,"REV_AT_EPOCH":17383,"BSTAR":-6.5367e-5,"MEAN_MOTION_DOT":-1.328e-5,"MEAN_MOTION_DDOT":0},{"OBJECT_NAME":"STARLINK-5129","OBJECT_ID":"2022-125AS","EPOCH":"2025-11-26T03:13:00.828768","MEAN_MOTION":15.08833902,"ECCENTRICITY":0.0001445,"INCLINATION":53.2179,"RA_OF_ASC_NODE":318.6828,"ARG_OF_PERICENTER":91.798,"MEAN_ANOMALY":268.3178,"EPHEMERIS_TYPE":0,"CLASSIFICATION_TYPE":"U","NORAD_CAT_ID":54004,"ELEMENT_SET_NO":999,"REV_AT_EPOCH":17383,"BSTAR":6.1721e-5,"MEAN_MOTION_DOT":6.94e-6,"MEAN_MOTION_DDOT":0},{"OBJECT_NAME":"STARLINK-5135","OBJECT_ID":"2022-125AT","EPOCH":"2025-11-26T03:18:19.827072","MEAN_MOTION":15.0882936,"ECCENTRICITY":0.0001454,"INCLINATION":53.2186,"RA_OF_ASC_NODE":318.707,"ARG_OF_PERICENTER":97.3734,"MEAN_ANOMALY":262.7424,"EPHEMERIS_TYPE":0,"CLASSIFICATION_TYPE":"U","NORAD_CAT_ID":54005,"ELEMENT_SET_NO":999,"REV_AT_EPOCH":17383,"BSTAR":-2.4017e-5,"MEAN_MOTION_DOT":-6.7e-6,"MEAN_MOTION_DDOT":0},{"OBJECT_NAME":"STARLINK-5096","OBJECT_ID":"2022-125AU","EPOCH":"2025-11-26T04:32:27.534048","MEAN_MOTION":15.08856139,"ECCENTRICITY":0.0001476,"INCLINATION":53.2188,"RA_OF_ASC_NODE":318.3245,"ARG_OF_PERICENTER":102.3801,"MEAN_ANOMALY":257.7356,"EPHEMERIS_TYPE":0,"CLASSIFICATION_TYPE":"U","NORAD_CAT_ID":54006,"ELEMENT_SET_NO":999,"REV_AT_EPOCH":17383,"BSTAR":4.7934e-5,"MEAN_MOTION_DOT":4.75e-6,"MEAN_MOTION_DDOT":0},{"OBJECT_NAME":"STARLINK-5132","OBJECT_ID":"2022-125AV","EPOCH":"2025-11-26T03:07:42.362688","MEAN_MOTION":15.08837393,"ECCENTRICITY":0.000137,"INCLINATION":53.2176,"RA_OF_ASC_NODE":318.6614,"ARG_OF_PERICENTER":92.8771,"MEAN_ANOMALY":267.2378,"EPHEMERIS_TYPE":0,"CLASSIFICATION_TYPE":"U","NORAD_CAT_ID":54007,"ELEMENT_SET_NO":999,"REV_AT_EPOCH":17383,"BSTAR":0.00012217,"MEAN_MOTION_DOT":1.657e-5,"MEAN_MOTION_DDOT":0},{"OBJECT_NAME":"STARLINK-5145","OBJECT_ID":"2022-125AW","EPOCH":"2025-11-26T03:03:44.550144","MEAN_MOTION":15.0884574,"ECCENTRICITY":0.0001952,"INCLINATION":53.2167,"RA_OF_ASC_NODE":308.6687,"ARG_OF_PERICENTER":85.7837,"MEAN_ANOMALY":274.3379,"EPHEMERIS_TYPE":0,"CLASSIFICATION_TYPE":"U","NORAD_CAT_ID":54008,"ELEMENT_SET_NO":999,"REV_AT_EPOCH":17397,"BSTAR":-1.2815e-5,"MEAN_MOTION_DOT":-4.92e-6,"MEAN_MOTION_DDOT":0},{"OBJECT_NAME":"STARLINK-5099","OBJECT_ID":"2022-125AX","EPOCH":"2025-11-26T03:02:24.127296","MEAN_MOTION":15.08840004,"ECCENTRICITY":0.0001439,"INCLINATION":53.2179,"RA_OF_ASC_NODE":318.6383,"ARG_OF_PERICENTER":94.0865,"MEAN_ANOMALY":266.0292,"EPHEMERIS_TYPE":0,"CLASSIFICATION_TYPE":"U","NORAD_CAT_ID":54009,"ELEMENT_SET_NO":999,"REV_AT_EPOCH":17383,"BSTAR":1.929e-5,"MEAN_MOTION_DOT":1.9e-7,"MEAN_MOTION_DDOT":0},{"OBJECT_NAME":"STARLINK-5127","OBJECT_ID":"2022-125AY","EPOCH":"2025-11-26T04:28:30.690048","MEAN_MOTION":15.08832085,"ECCENTRICITY":0.0001239,"INCLINATION":53.217,"RA_OF_ASC_NODE":308.3385,"ARG_OF_PERICENTER":88.5768,"MEAN_ANOMALY":271.5366,"EPHEMERIS_TYPE":0,"CLASSIFICATION_TYPE":"U","NORAD_CAT_ID":54010,"ELEMENT_SET_NO":999,"REV_AT_EPOCH":17398,"BSTAR":0.00014412,"MEAN_MOTION_DOT":2.006e-5,"MEAN_MOTION_DDOT":0},{"OBJECT_NAME":"STARLINK-5124","OBJECT_ID":"2022-125AZ","EPOCH":"2025-11-26T04:12:42.362784","MEAN_MOTION":15.0885485,"ECCENTRICITY":0.0001796,"INCLINATION":53.2197,"RA_OF_ASC_NODE":308.9646,"ARG_OF_PERICENTER":101.2193,"MEAN_ANOMALY":258.9001,"EPHEMERIS_TYPE":0,"CLASSIFICATION_TYPE":"U","NORAD_CAT_ID":54011,"ELEMENT_SET_NO":999,"REV_AT_EPOCH":17397,"BSTAR":-0.00038785,"MEAN_MOTION_DOT":-6.458e-5,"MEAN_MOTION_DDOT":0},{"OBJECT_NAME":"STARLINK-5126","OBJECT_ID":"2022-125BA","EPOCH":"2025-11-26T03:35:33.851040","MEAN_MOTION":15.08843861,"ECCENTRICITY":0.0001374,"INCLINATION":53.2174,"RA_OF_ASC_NODE":308.804,"ARG_OF_PERICENTER":91.4557,"MEAN_ANOMALY":268.6593,"EPHEMERIS_TYPE":0,"CLASSIFICATION_TYPE":"U","NORAD_CAT_ID":54012,"ELEMENT_SET_NO":999,"REV_AT_EPOCH":17397,"BSTAR":3.6574e-6,"MEAN_MOTION_DOT":-2.3e-6,"MEAN_MOTION_DDOT":0},{"OBJECT_NAME":"STARLINK-5098","OBJECT_ID":"2022-125BB","EPOCH":"2025-11-26T03:46:11.146080","MEAN_MOTION":15.08838904,"ECCENTRICITY":0.0001444,"INCLINATION":53.218,"RA_OF_ASC_NODE":308.8485,"ARG_OF_PERICENTER":103.8686,"MEAN_ANOMALY":256.2466,"EPHEMERIS_TYPE":0,"CLASSIFICATION_TYPE":"U","NORAD_CAT_ID":54013,"ELEMENT_SET_NO":999,"REV_AT_EPOCH":17397,"BSTAR":8.4998e-5,"MEAN_MOTION_DOT":1.065e-5,"MEAN_MOTION_DDOT":0}]
